DELTA 2 R/B             
1 25876U 99041E   26061.71644383  .00001746  00000+0  31857-3 0  9996
2 25876  51.7652 329.1309 0502317 327.8439  29.2746 14.11811317362040
HELIOS 1B               
1 25977U 99064A   26061.71885212  .00002212  00000+0  24946-3 0  9991
2 25977  98.1705 323.7571 0002509  84.3567 275.7935 14.87662698684226
TERRA                   
1 25994U 99068A   26061.80781814  .00000548  00000+0  12082-3 0  9995
2 25994  97.9608 115.5050 0002235 168.5808 303.7174 14.61006057394073
SL-16 R/B               
1 26070U 00006B   26061.59408206  .00000261  00000+0  15675-3 0  9995
2 26070  71.0013 112.7581 0017251 199.9346 160.1105 14.15823865347552
TITAN 4B R/B            
1 26474U 00047B   26061.80553907  .00004966  00000+0  31231-3 0  9993
2 26474  67.9882  59.8671 0037919  43.6018 316.8117 15.09481584391872
ENVISAT                 
1 27386U 02009A   26061.85866175  .00000157  00000+0  64556-4 0  9990
2 27386  98.3717  15.6191 0001346  84.9534 290.4970 14.39033896258195
IDEFIX & ARIANE 42P R/B 
1 27422U 02021B   26061.78353345  .00000343  00000+0  14692-3 0  9999
2 27422  98.5864   0.4726 0011181 203.1585 156.9095 14.31020279243030
AQUA                    
1 27424U 02022A   26061.90159334  .00001285  00000+0  26639-3 0  9998
2 27424  98.4162  29.1435 0000685  56.8605 326.0417 14.61956893267745
CZ-4B R/B               
1 27432U 02024C   26061.79821735  .00000053  00000+0  50114-4 0  9995
2 27432  98.8854 115.2392 0050790  43.5863  74.0923 14.14546123228261
MIDORI II (ADEOS-II)    
1 27597U 02056A   26061.80321670  .00000355  00000+0  15735-3 0  9991
2 27597  98.7757  20.2338 0001837  52.7626 307.3723 14.29278638209310
H-2A R/B                
1 27601U 02056E   26061.79843520  .00000314  00000+0  12447-3 0  9990
2 27601  98.3190  22.4269 0070070 181.1545 240.0865 14.33755222213120
CZ-4B R/B               
1 28059U 03049C   26061.57548907  .00000514  00000+0  12953-3 0  9992
2 28059  98.6871  56.2015 0047030 253.0831 106.5205 14.55011904185564
CZ-2C R/B               
1 28222U 04012C   26061.69932580  .00058146  00000+0  62271-3 0  9994
2 28222  97.7249 126.3342 0013394 338.0425  22.0257 15.63563856203182
SL-16 R/B               
1 28353U 04021B   26061.81003835 -.00000101  00000+0 -27940-4 0  9990
2 28353  70.9991 246.9308 0003690  23.6426 336.4865 14.14599702121866
CZ-4B R/B               
1 28415U 04035C   26061.64487788  .00010090  00000+0  35643-3 0  9992
2 28415  97.3510  95.9723 0031865 357.0727   3.0321 15.28910749178838
CZ-2C R/B               
1 28480U 04046B   26061.75414836  .00000156  00000+0  72804-4 0  9995
2 28480  98.1988 337.1695 0139468 174.9003 185.3638 14.26989516107515
ARIANE 5 R/B            
1 28499U 04049H   26061.42423242  .00000995  00000+0  11591-3 0  9999
2 28499  98.2615 229.6099 0084468  15.4673 344.9092 14.85249915144714
